start=new Date('2023-06-11T00:00:00.000Z').valueOf();
sats=[{"OBJECT_ID":"2020-055BC","EPOCH":"2023-06-10T14:18:08.587008","TLE_LINE2":"2 46077  53.0527 279.6790 0000952  75.6573 284.4521 15.06391599158072","INCLINATION":"53.0527","CLASSIFICATION_TYPE":"U","BSTAR":"0.00022043000000","MEAN_MOTION_DDOT":"0.0000000000000","MEAN_MOTION":"15.06391599","PERIAPSIS":"546.580","OBJECT_NAME":"STARLINK-1559","RCS_SIZE":"LARGE","RA_OF_ASC_NODE":"279.6790","TLE_LINE1":"1 46077U 20055BC  23161.59593272  .00003003  00000-0  22043-3 0  9991","SEMIMAJOR_AXIS":"6925.374","ELEMENT_SET_NO":"999","APOAPSIS":"547.899","MEAN_MOTION_DOT":"0.00003003","COUNTRY_CODE":"US","EPHEMERIS_TYPE":"0","ARG_OF_PERICENTER":"75.6573","MEAN_ANOMALY":"284.4521","ECCENTRICITY":"0.00009520","PERIOD":"95.593","OBJECT_TYPE":"PAYLOAD","MEAN_ELEMENT_THEORY":"SGP4","LAUNCH_DATE":"2020-08-07","SITE":"AFETR","FILE":"3929709","REF_FRAME":"TEME","NORAD_CAT_ID":"46077","REV_AT_EPOCH":"15807","TIME_SYSTEM":"UTC","GP_ID":"233616657","CENTER_NAME":"EARTH","DECAY_DATE":null},{"TLE_LINE1":"1 46078U 20055BD  23161.64016048  .00020785  00000-0  14109-2 0  9998","RA_OF_ASC_NODE":"279.4845","ELEMENT_SET_NO":"999","SEMIMAJOR_AXIS":"6925.409","MEAN_MOTION_DOT":"0.00020785","COUNTRY_CODE":"US","APOAPSIS":"547.765","OBJECT_ID":"2020-055BD","CLASSIFICATION_TYPE":"U","TLE_LINE2":"2 46078  53.0529 279.4845 0000710 128.3049 231.8004 15.06380377158096","INCLINATION":"53.0529","EPOCH":"2023-06-10T15:21:49.865472","MEAN_MOTION_DDOT":"0.0000000000000","BSTAR":"0.00141090000000","RCS_SIZE":"LARGE","OBJECT_NAME":"STARLINK-1563","PERIAPSIS":"546.782","MEAN_MOTION":"15.06380377","NORAD_CAT_ID":"46078","REF_FRAME":"TEME","TIME_SYSTEM":"UTC","REV_AT_EPOCH":"15809","DECAY_DATE":null,"CENTER_NAME":"EARTH","GP_ID":"233649728","EPHEMERIS_TYPE":"0","MEAN_ANOMALY":"231.8004","ARG_OF_PERICENTER":"128.3049","PERIOD":"95.593","ECCENTRICITY":"0.00007100","FILE":"3929969","SITE":"AFETR","LAUNCH_DATE":"2020-08-07","MEAN_ELEMENT_THEORY":"SGP4","OBJECT_TYPE":"PAYLOAD"},{"ARG_OF_PERICENTER":"59.0399","MEAN_ANOMALY":"301.0664","EPHEMERIS_TYPE":"0","OBJECT_TYPE":"PAYLOAD","MEAN_ELEMENT_THEORY":"SGP4","LAUNCH_DATE":"2020-08-07","SITE":"AFETR","FILE":"3929969","ECCENTRICITY":"0.00007500","PERIOD":"95.594","REF_FRAME":"TEME","NORAD_CAT_ID":"46079","GP_ID":"233649978","CENTER_NAME":"EARTH","DECAY_DATE":null,"REV_AT_EPOCH":"15812","TIME_SYSTEM":"UTC","EPOCH":"2023-06-10T15:11:13.421472","TLE_LINE2":"2 46079  53.0532 279.5152 0000750  59.0399 301.0664 15.06376212158124","INCLINATION":"53.0532","CLASSIFICATION_TYPE":"U","OBJECT_ID":"2020-055BE","MEAN_MOTION":"15.06376212","PERIAPSIS":"546.767","OBJECT_NAME":"STARLINK-1566","RCS_SIZE":"LARGE","BSTAR":"0.00143630000000","MEAN_MOTION_DDOT":"0.0000000000000","RA_OF_ASC_NODE":"279.5152","TLE_LINE1":"1 46079U 20055BE  23161.63279423  .00021163  00000-0  14363-2 0  9999","APOAPSIS":"547.806","MEAN_MOTION_DOT":"0.00021163","COUNTRY_CODE":"US","SEMIMAJOR_AXIS":"6925.421","ELEMENT_SET_NO":"999"},{"CLASSIFICATION_TYPE":"U","EPOCH":"2023-06-10T14:11:28.297536","TLE_LINE2":"2 46080  53.0523 279.6895 0000527 106.8840 253.2207 15.06374765157586","INCLINATION":"53.0523","OBJECT_ID":"2020-055BF","RCS_SIZE":"LARGE","PERIAPSIS":"546.926","MEAN_MOTION":"15.06374765","OBJECT_NAME":"STARLINK-1568","MEAN_MOTION_DDOT":"0.0000000000000","BSTAR":"0.00110890000000","RA_OF_ASC_NODE":"279.6895","TLE_LINE1":"1 46080U 20055BF  23161.59129974  .00016263  00000-0  11089-2 0  9998","COUNTRY_CODE":"US","MEAN_MOTION_DOT":"0.00016263","APOAPSIS":"547.656","ELEMENT_SET_NO":"999","SEMIMAJOR_AXIS":"6925.426","MEAN_ANOMALY":"253.2207","ARG_OF_PERICENTER":"106.8840","EPHEMERIS_TYPE":"0","SITE":"AFETR","FILE":"3929825","OBJECT_TYPE":"PAYLOAD","LAUNCH_DATE":"2020-08-07","MEAN_ELEMENT_THEORY":"SGP4","ECCENTRICITY":"0.00005270","PERIOD":"95.594","REF_FRAME":"TEME","NORAD_CAT_ID":"46080","DECAY_DATE":null,"CENTER_NAME":"EARTH","GP_ID":"233627403","REV_AT_EPOCH":"15758","TIME_SYSTEM":"UTC"},{"PERIOD":"95.593","ECCENTRICITY":"0.00007280","MEAN_ELEMENT_THEORY":"SGP4","LAUNCH_DATE":"2020-08-07","OBJECT_TYPE":"PAYLOAD","FILE":"3929969","SITE":"AFETR","EPHEMERIS_TYPE":"0","ARG_OF_PERICENTER":"118.7623","MEAN_ANOMALY":"241.3439","TIME_SYSTEM":"UTC","REV_AT_EPOCH":"15810","GP_ID":"233650975","CENTER_NAME":"EARTH","DECAY_DATE":null,"NORAD_CAT_ID":"46081","REF_FRAME":"TEME","BSTAR":"0.00135480000000","MEAN_MOTION_DDOT":"0.0000000000000","OBJECT_NAME":"STARLINK-1571","PERIAPSIS":"546.775","MEAN_MOTION":"15.06378642","RCS_SIZE":"LARGE","OBJECT_ID":"2020-055BG","TLE_LINE2":"2 46081  53.0537 279.8488 0000728 118.7623 241.3439 15.06378642158108","INCLINATION":"53.0537","EPOCH":"2023-06-10T13:25:03.794880","CLASSIFICATION_TYPE":"U","SEMIMAJOR_AXIS":"6925.414","ELEMENT_SET_NO":"999","APOAPSIS":"547.783","MEAN_MOTION_DOT":"0.00019944","COUNTRY_CODE":"US","TLE_LINE1":"1 46081U 20055BG  23161.55907170  .00019944  00000-0  13548-2 0  9998","RA_OF_ASC_NODE":"279.8488"},{"OBJECT_ID":"2020-055BH","EPOCH":"2023-06-10T15:32:27.241728","INCLINATION":"53.0532","TLE_LINE2":"2 46082  53.0532 279.4500 0000865  61.7098 298.3978 15.06370313158129","CLASSIFICATION_TYPE":"U","BSTAR":"0.00145750000000","MEAN_MOTION_DDOT":"0.0000000000000","PERIAPSIS":"546.705","MEAN_MOTION":"15.06370313","OBJECT_NAME":"STARLINK-1578","RCS_SIZE":"LARGE","RA_OF_ASC_NODE":"279.4500","TLE_LINE1":"1 46082U 20055BH  23161.64753752  .00021477  00000-0  14575-2 0  9999","SEMIMAJOR_AXIS":"6925.440","ELEMENT_SET_NO":"999","APOAPSIS":"547.904","MEAN_MOTION_DOT":"0.00021477","COUNTRY_CODE":"US","EPHEMERIS_TYPE":"0","ARG_OF_PERICENTER":"61.7098","MEAN_ANOMALY":"298.3978","ECCENTRICITY":"0.00008650","PERIOD":"95.594","OBJECT_TYPE":"PAYLOAD","MEAN_ELEMENT_THEORY":"SGP4","LAUNCH_DATE":"2020-08-07","SITE":"AFETR","FILE":"3929969","REF_FRAME":"TEME","NORAD_CAT_ID":"46082","REV_AT_EPOCH":"15812","TIME_SYSTEM":"UTC","GP_ID":"233650228","CENTER_NAME":"EARTH","DECAY_DATE":null},{"PERIOD":"95.593","ECCENTRICITY":"0.00008820","FILE":"3929969","SITE":"AFETR","MEAN_ELEMENT_THEORY":"SGP4","LAUNCH_DATE":"2020-08-07","OBJECT_TYPE":"PAYLOAD","EPHEMERIS_TYPE":"0","MEAN_ANOMALY":"297.5523","ARG_OF_PERICENTER":"62.5555","TIME_SYSTEM":"UTC","REV_AT_EPOCH":"15811","DECAY_DATE":null,"GP_ID":"233650478","CENTER_NAME":"EARTH","NORAD_CAT_ID":"46083","REF_FRAME":"TEME","MEAN_MOTION_DDOT":"0.0000000000000","BSTAR":"0.00091552000000","RCS_SIZE":"LARGE","OBJECT_NAME":"STARLINK-1579","MEAN_MOTION":"15.06380637","PERIAPSIS":"546.662","OBJECT_ID":"2020-055BJ","CLASSIFICATION_TYPE":"U","TLE_LINE2":"2 46083  53.0541 279.5835 0000882  62.5555 297.5523 15.06380637158114","INCLINATION":"53.0541","EPOCH":"2023-06-10T14:49:59.375712","ELEMENT_SET_NO":"999","SEMIMAJOR_AXIS":"6925.408","COUNTRY_CODE":"US","MEAN_MOTION_DOT":"0.00013374","APOAPSIS":"547.884","TLE_LINE1":"1 46083U 20055BJ  23161.61804833  .00013374  00000-0  91552-3 0  9992","RA_OF_ASC_NODE":"279.5835"},{"MEAN_MOTION_DDOT":"0.0000000000000","BSTAR":"0.00010646000000","RCS_SIZE":"LARGE","MEAN_MOTION":"15.06388566","PERIAPSIS":"546.289","OBJECT_NAME":"STARLINK-1585","OBJECT_ID":"2020-057A","CLASSIFICATION_TYPE":"U","EPOCH":"2023-06-10T21:59:55.052160","INCLINATION":"53.0523","TLE_LINE2":"2 46117  53.0523 118.2369 0001385  77.2804 282.8340 15.06388566155202","ELEMENT_SET_NO":"999","SEMIMAJOR_AXIS":"6925.384","COUNTRY_CODE":"US","MEAN_MOTION_DOT":"0.00001304","APOAPSIS":"548.208","RA_OF_ASC_NODE":"118.2369","TLE_LINE1":"1 46117U 20057A   23161.91660940  .00001304  00000-0  10646-3 0  9999","ECCENTRICITY":"0.00013850","PERIOD":"95.593","SITE":"AFETR","FILE":"3929969","OBJECT_TYPE":"PAYLOAD","LAUNCH_DATE":"2020-08-18","MEAN_ELEMENT_THEORY":"SGP4","EPHEMERIS_TYPE":"0","MEAN_ANOMALY":"282.8340","ARG_OF_PERICENTER":"77.2804","REV_AT_EPOCH":"15520","TIME_SYSTEM":"UTC","DECAY_DATE":null,"CENTER_NAME":"EARTH","GP_ID":"233649982","REF_FRAME":"TEME","NORAD_CAT_ID":"46117"},{"ECCENTRICITY":"0.00011460","PERIOD":"95.592","OBJECT_TYPE":"PAYLOAD","MEAN_ELEMENT_THEORY":"SGP4","LAUNCH_DATE":"2020-08-18","SITE":"AFETR","FILE":"3929709","EPHEMERIS_TYPE":"0","ARG_OF_PERICENTER":"82.9521","MEAN_ANOMALY":"277.1598","REV_AT_EPOCH":"15607","TIME_SYSTEM":"UTC","GP_ID":"233617909","CENTER_NAME":"EARTH","DECAY_DATE":null,"REF_FRAME":"TEME","NORAD_CAT_ID":"46118","BSTAR":"0.00008229200000","MEAN_MOTION_DDOT":"0.0000000000000","PERIAPSIS":"546.408","MEAN_MOTION":"15.06403814","OBJECT_NAME":"STARLINK-1588","RCS_SIZE":"LARGE","OBJECT_ID":"2020-057B","EPOCH":"2023-06-10T01:31:09.034464","TLE_LINE2":"2 46118  53.0541 142.0748 0001146  82.9521 277.1598 15.06403814156075","INCLINATION":"53.0541","CLASSIFICATION_TYPE":"U","SEMIMAJOR_AXIS":"6925.337","ELEMENT_SET_NO":"999","APOAPSIS":"547.996","MEAN_MOTION_DOT":"0.00000945","COUNTRY_CODE":"US","RA_OF_ASC_NODE":"142.0748","TLE_LINE1":"1 46118U 20057B   23161.06329901  .00000945  00000-0  82292-4 0  9992"},{"RCS_SIZE":"LARGE","OBJECT_NAME":"STARLINK-1593","PERIAPSIS":"546.351","MEAN_MOTION":"15.06407296","MEAN_MOTION_DDOT":"0.0000000000000","BSTAR":"0.00010553000000","CLASSIFICATION_TYPE":"U","TLE_LINE2":"2 46119  53.0532 140.9297 0001213  82.7789 277.3338 15.06407296156095","INCLINATION":"53.0532","EPOCH":"2023-06-10T07:37:22.838880","OBJECT_ID":"2020-057C","COUNTRY_CODE":"US","MEAN_MOTION_DOT":"0.00001291","APOAPSIS":"548.031","ELEMENT_SET_NO":"999","SEMIMAJOR_AXIS":"6925.326","TLE_LINE1":"1 46119U 20057C   23161.31762545  .00001291  00000-0  10553-3 0  9991","RA_OF_ASC_NODE":"140.9297","FILE":"3929709","SITE":"AFETR","LAUNCH_DATE":"2020-08-18","MEAN_ELEMENT_THEORY":"SGP4","OBJECT_TYPE":"PAYLOAD","PERIOD":"95.592","ECCENTRICITY":"0.00012130","MEAN_ANOMALY":"277.3338","ARG_OF_PERICENTER":"82.7789","EPHEMERIS_TYPE":"0","DECAY_DATE":null,"GP_ID":"233617161","CENTER_NAME":"EARTH","TIME_SYSTEM":"UTC","REV_AT_EPOCH":"15609","NORAD_CAT_ID":"46119","REF_FRAME":"TEME"}];
